*******************************************************************************
 Revised: Jul 31, 2013              Venus                               299 / 2
 
 GEOPHYSICAL DATA (updated 2014-Mar-13):
  Mean radius (km)      =   6051.8(4+-1)  Density (g cm^-3)     =  5.204 
  Mass (10^23 kg )      =     48.685      Flattening, f         =  
  Volume (x10^10 km^3)  =     92.843      Semi-major axis       =  
  Sidereal rot. period  =   -243.0185 d   Rot. Rate (x10^5 s)   = -0.029924 
  Mean solar day        =    116.7490 d   Polar gravity ms^-2   =   
  Mom. of Inertia       =      0.33       Equ. gravity  ms^-2   =  8.870 
  Core radius (km)      =  ~3200          Potential Love # k2   = ~0.25 

  Grav spectral fact u  =      1.5        Topo. spectral fact t =  23       
  Fig. offset (Rcf-Rcm) =      0.19+-01   Offset (lat./long.)   = 11/102 dg/dg 
  GM (km^3 s^-2)        = 324858.63       Equatorial Radius, Re = 6051.893 km 
  GM 1-sigma (km^3 s^-2)=    +-0.04       Mass ratio (Sun/Venus)= 408523.72
  
  Atmos. pressure (bar) =    90           Max. angular diam.    =   60.2" 
  Mean Temperature (K)  =  735            Visual mag. V(1,0)    =   -4.40 
  Geometric albedo      =    0.65         Obliquity to orbit    =  177.3 deg 
  Sidereal orb. per.    =    0.61519726 y Orbit vel.  km/s      =   35.0214 
  Sidereal orb. per.    =  224.70079922 d Escape vel. km/s      =   10.361 
  Hill's sphere rad. Rp =  167.1          Planetary Solar Const = 2613.9 (Wm^2) 
*******************************************************************************
 
 
*******************************************************************************
Ephemeris / WWW_USER Wed Dec  7 01:18:26 2016 Pasadena, USA      / Horizons    
*******************************************************************************
Target body name: Venus (299)                     {source: DE431mx}
Center body name: Sun (10)                        {source: DE431mx}
Center-site name: BODY CENTER
*******************************************************************************
Start time      : A.D. 1996-Dec-05 00:00:00.0000 TDB
Stop  time      : A.D. 2000-Jan-04 00:00:00.0000 TDB
Step-size       : 1440 minutes
*******************************************************************************
Center geodetic : 0.00000000,0.00000000,0.0000000 {E-lon(deg),Lat(deg),Alt(km)}
Center cylindric: 0.00000000,0.00000000,0.0000000 {E-lon(deg),Dxy(km),Dz(km)}
Center radii    : 696000.0 x 696000.0 x 696000.0 k{Equator, meridian, pole}    
Output units    : KM-S                                                         
Output type     : GEOMETRIC cartesian states
Output format   : 2 (position and velocity)
Reference frame : ICRF/J2000.0                                                 
Coordinate systm: Ecliptic and Mean Equinox of Reference Epoch                 
*******************************************************************************
JDTDB
   X     Y     Z
   VX    VY    VZ
*******************************************************************************
$$SOE
2451102.500000000 = A.D. 1998-Oct-16 00:00:00.0000 TDB 
  -1.046216007252793E+08 -2.562872400129529E+07  5.688768652642717E+06
   8.103252058788177E+00 -3.417215306759912E+01 -9.345883827091725E-01
2451103.500000000 = A.D. 1998-Oct-17 00:00:00.0000 TDB 
  -1.038802875576205E+08 -2.857069636943312E+07  5.605786005609310E+06
   9.055565569834531E+00 -3.392460131111557E+01 -9.861755129445609E-01
2451104.500000000 = A.D. 1998-Oct-18 00:00:00.0000 TDB 
  -1.030570187647069E+08 -3.149012811564539E+07  5.518380688121292E+06
   1.000024843896796E+01 -3.365041858476599E+01 -1.036958358084403E+00
2451105.500000000 = A.D. 1998-Oct-19 00:00:00.0000 TDB 
  -1.021524858100900E+08 -3.438472878066953E+07  5.426623904819899E+06
   1.093655718498986E+01 -3.334985043436421E+01 -1.086897357603263E+00
2451106.500000000 = A.D. 1998-Oct-20 00:00:00.0000 TDB 
  -1.011674440393891E+08 -3.725223002240326E+07  5.330590245578242E+06
   1.186375663543738E+01 -3.302316323542320E+01 -1.135953715145902E+00
2451107.500000000 = A.D. 1998-Oct-21 00:00:00.0000 TDB 
  -1.001027119372136E+08 -4.009038740239400E+07  5.230357618202550E+06
   1.278112050792320E+01 -3.267064388489467E+01 -1.184089427871907E+00
2451108.500000000 = A.D. 1998-Oct-22 00:00:00.0000 TDB 
  -9.895917033440129E+07 -4.289698214498981E+07  5.126007178639030E+06
   1.368793197881408E+01 -3.229259947677472E+01 -1.231267314848880E+00
2451109.500000000 = A.D. 1998-Oct-23 00:00:00.0000 TDB 
  -9.773776156668217E+07 -4.566982286779280E+07  5.017623258769011E+06
   1.458348423888268E+01 -3.188935696226954E+01 -1.277451044482927E+00
2451110.500000000 = A.D. 1998-Oct-24 00:00:00.0000 TDB 
  -9.643948858591259E+07 -4.840674728210168E+07  4.905293291876351E+06
   1.546708103551349E+01 -3.146126279503169E+01 -1.322605160969108E+00
2451111.500000000 = A.D. 1998-Oct-25 00:00:00.0000 TDB 
  -9.506541402505644E+07 -5.110562386207946E+07  4.789107735872272E+06
   1.633803720110057E+01 -3.100868256207242E+01 -1.366695109749244E+00
2451112.500000000 = A.D. 1998-Oct-26 00:00:00.0000 TDB 
  -9.361665921812151E+07 -5.376435348143501E+07  4.669159994363997E+06
   1.719567916730212E+01 -3.053200060095623E+01 -1.409687261966049E+00
2451113.500000000 = A.D. 1998-Oct-27 00:00:00.0000 TDB 
  -9.209440317628652E+07 -5.638087101645944E+07  4.545546335654186E+06
   1.803934546484401E+01 -3.003161960388404E+01 -1.451548937903995E+00
2451114.500000000 = A.D. 1998-Oct-28 00:00:00.0000 TDB 
  -9.049988152147953E+07 -5.895314691431087E+07  4.418365809759203E+06
   1.886838720859202E+01 -2.950796020927221E+01 -1.492248429409177E+00
2451115.500000000 = A.D. 1998-Oct-29 00:00:00.0000 TDB 
  -8.883438537869169E+07 -6.147918872549304E+07  4.287720163534600E+06
   1.968216856763977E+01 -2.896146058143476E+01 -1.531755021281763E+00
2451116.500000000 = A.D. 1998-Oct-30 00:00:00.0000 TDB 
  -8.709926022833101E+07 -6.395704259952665E+07  4.153713753996883E+06
   2.048006722018652E+01 -2.839257597897682E+01 -1.570039011636387E+00
2451117.500000000 = A.D. 1998-Oct-31 00:00:00.0000 TDB 
  -8.529590471993893E+07 -6.638479474286399E+07  4.016453459930837E+06
   2.126147479300671E+01 -2.780177831250809E+01 -1.607071731227318E+00
2451118.500000000 = A.D. 1998-Nov-01 00:00:00.0000 TDB 
  -8.342576944860870E+07 -6.876057283815061E+07  3.876048591871921E+06
   2.202579728534015E+01 -2.718955569228492E+01 -1.642825561736871E+00
2451119.500000000 = A.D. 1998-Nov-02 00:00:00.0000 TDB 
  -8.149035569545773E+07 -7.108254742399009E+07  3.732610800553355E+06
   2.277245547705925E+01 -2.655641196639087E+01 -1.677273953027143E+00
2451120.500000000 = A.D. 1998-Nov-03 00:00:00.0000 TDB 
  -7.949121413351816E+07 -7.334893323442093E+07  3.586253983907405E+06
   2.350088532099721E+01 -2.590286625006556E+01 -1.710391439356702E+00
2451121.500000000 = A.D. 1998-Nov-04 00:00:00.0000 TDB 
  -7.742994350041822E+07 -7.555799049736419E+07  3.437094192710180E+06
   2.421053831931860E+01 -2.522945244669953E+01 -1.742153654562467E+00
2451122.500000000 = A.D. 1998-Nov-05 00:00:00.0000 TDB 
  -7.530818923923765E+07 -7.770802619134936E+07  3.285249534959272E+06
   2.490088188388728E+01 -2.453671876121280E+01 -1.772537346214046E+00
2451123.500000000 = A.D. 1998-Nov-06 00:00:00.0000 TDB 
  -7.312764210891761E+07 -7.979739525988612E+07  3.130840079072602E+06
   2.557139968059710E+01 -2.382522720628841E+01 -1.801520388744814E+00
2451124.500000000 = A.D. 1998-Nov-07 00:00:00.0000 TDB 
  -7.089003676561950E+07 -8.182450178288633E+07  2.973987755996902E+06
   2.622159195756363E+01 -2.309555310206101E+01 -1.829081795562443E+00
2451125.500000000 = A.D. 1998-Nov-08 00:00:00.0000 TDB 
  -6.859715031642042E+07 -8.378780010459773E+07  2.814816260313474E+06
   2.685097585726748E+01 -2.234828456984454E+01 -1.855201730151772E+00
2451126.500000000 = A.D. 1998-Nov-09 00:00:00.0000 TDB 
  -6.625080084673472E+07 -8.568579591755758E+07  2.653450950428002E+06
   2.745908571261028E+01 -2.158402202042647E+01 -1.879861516175085E+00
2451127.500000000 = A.D. 1998-Nov-10 00:00:00.0000 TDB 
  -6.385284592284981E+07 -8.751704730211930E+07  2.490018747930657E+06
   2.804547332692676E+01 -2.080337763747177E+01 -1.903043646579765E+00
2451128.500000000 = A.D. 1998-Nov-11 00:00:00.0000 TDB 
  -6.140518107095992E+07 -8.928016572115330E+07  2.324648036211811E+06
   2.860970823801201E+01 -2.000697485656568E+01 -1.924731791724035E+00
2451129.500000000 = A.D. 1998-Nov-12 00:00:00.0000 TDB 
  -5.890973823407576E+07 -9.097381696956733E+07  2.157468558417674E+06
   2.915137796623817E+01 -1.919544784041053E+01 -1.944910806531890E+00
2451130.500000000 = A.D. 1998-Nov-13 00:00:00.0000 TDB 
  -5.636848420818124E+07 -9.259672207833567E+07  1.988611314829309E+06
   2.967008824684957E+01 -1.836944095067711E+01 -1.963566736689334E+00
2451131.500000000 = A.D. 1998-Nov-14 00:00:00.0000 TDB 
  -5.378341905899956E+07 -9.414765817276928E+07  1.818208459747210E+06
   3.016546324654059E+01 -1.752960821699705E+01 -1.980686823894401E+00
2451132.500000000 = A.D. 1998-Nov-15 00:00:00.0000 TDB 
  -5.115657452072176E+07 -9.562545928480054E+07  1.646393197962675E+06
   3.063714576443464E+01 -1.667661280356811E+01 -1.996259510174143E+00
2451133.500000000 = A.D. 1998-Nov-16 00:00:00.0000 TDB 
  -4.849001237803986E+07 -9.702901711909606E+07  1.473299680896133E+06
   3.108479741759737E+01 -1.581112647382943E+01 -2.010274441282289E+00
2451134.500000000 = A.D. 1998-Nov-17 00:00:00.0000 TDB 
  -4.578582283281451E+07 -9.835728177284990E+07  1.299062902480833E+06
   3.150809881123167E+01 -1.493382905364947E+01 -2.022722469191860E+00
2451135.500000000 = A.D. 1998-Nov-18 00:00:00.0000 TDB 
  -4.304612285669375E+07 -9.960926240914762E+07  1.123818594870120E+06
   3.190674969371558E+01 -1.404540789345404E+01 -2.033595653697525E+00
